PROBA-1                 
1 26958U 01049B   26186.58889267  .00004329  00000+0  27902-3 0  9990
2 26958  97.9593 195.7646 0056219  61.4068 299.2799 15.07581456346394
CUTE-1 (CO-55)          
1 27844U 03031E   26186.02060450  .00000393  00000+0  18869-3 0  9991
2 27844  98.6737 194.3551 0010529 129.0136 231.1982 14.24347366194217
CUBESAT XI-IV (CO-57)   
1 27848U 03031J   26185.94773638  .00000336  00000+0  16664-3 0  9992
2 27848  98.6769 193.9817 0010102 146.4963 213.6856 14.23630898193908
APRIZESAT 4             
1 35684U 09041D   26186.19375298  .00001000  00000+0  12563-3 0  9997
2 35684  98.1407 261.8729 0041908 262.9445  96.7001 14.83905100914037
APRIZESAT 3             
1 35686U 09041F   26185.88735680  .00001641  00000+0  14569-3 0  9998
2 35686  98.2081 339.9614 0061679   9.7074 350.5322 14.96289816919024
PROBA-2                 
1 36037U 09059B   26186.12208704  .00000279  00000+0  75599-4 0  9995
2 36037  98.2456   9.2266 0012346 221.2045 138.8221 14.54870815884134
APRIZESAT 5             
1 37792U 11044E   26185.77502382  .00001335  00000+0  17570-3 0  9998
2 37792  98.2449 119.3143 0051035 307.1467  52.5088 14.81114907801395
APRIZESAT 6             
1 37793U 11044F   26186.31363234  .00001155  00000+0  16946-3 0  9997
2 37793  98.2348  97.1823 0043824  29.5739  85.5721 14.76947084799824
PROBA-V                 
1 39159U 13021A   26185.90117094  .00000157  00000+0  87059-4 0  9992
2 39159  98.3596 163.6342 0005420  83.0775 277.1021 14.23601888683632
APRIZESAT 8             
1 39425U 13066K   26186.30184209  .00001160  00000+0  13127-3 0  9993
2 39425  97.8226 133.5179 0044733 224.9710 134.7881 14.87686390682363
BUGSAT-1 (TITA)         
1 40014U 14033E   26186.58737220  .00013728  00000+0  71399-3 0  9999
2 40014  98.0431 280.2152 0029020 117.0166 243.4033 15.15818189658624
SAUDISAT 4              
1 40016U 14033G   26186.31103891  .00000819  00000+0  11448-3 0  9999
2 40016  97.7607 331.8210 0045108  16.2456 344.0190 14.79568835648756
APRIZESAT 9             
1 40018U 14033J   26186.32990274  .00001033  00000+0  15837-3 0  9996
2 40018  97.9084 319.0872 0067012 141.0925 219.5135 14.74243582646237
APRIZESAT 10            
1 40019U 14033K   26186.28993605  .00000824  00000+0  13675-3 0  9998
2 40019  97.9672 312.8478 0077981 215.1609 144.4438 14.70903193644914
TECHDEMOSAT-1 (TDS-1)   
1 40076U 14037H   26186.40662003  .00013188  00000+0  73811-3 0  9999
2 40076  98.3822 180.4288 0005993 191.4579 168.6514 15.13584487650989
TECHNOSAT               
1 42829U 17042E   26186.33359148  .00004648  00000+0  32996-3 0  9991
2 42829  97.4297 343.3035 0018234  35.7421 324.5022 15.05066778489437
FLYING LAPTOP           
1 42831U 17042G   26186.64897748  .00004016  00000+0  31558-3 0  9993
2 42831  97.4777 341.4815 0019960  62.8836 297.4422 15.01269508489227
HAWK-A                  
1 43765U 18099H   26186.39550292  .00010704  00000+0  42633-3 0  9992
2 43765  97.3899 238.3955 0033746 218.9339 140.9468 15.24877386415873
HAWK-B                  
1 43794U 18099AN  26186.57023020  .00008956  00000+0  37846-3 0  9994
2 43794  97.3947 237.9442 0030570 236.9249 122.9052 15.23039141415830
HAWK-C                  
1 43799U 18099AT  26186.13421405  .00013944  00000+0  49548-3 0  9995
2 43799  97.3876 239.1386 0039336 219.8315 140.0036 15.28377950416652
SALSAT                  
1 46495U 20068K   26186.45874269  .00010448  00000+0  36136-3 0  9990
2 46495  97.8857 190.6390 0008285 230.3359 129.7150 15.30074171318152
HAWK-2C                 
1 47502U 21006CT  26186.08196231  .00011044  00000+0  32819-3 0  9995
2 47502  97.2265 230.0360 0008329 129.7517 230.4462 15.34896115302244
HAWK-2A                 
1 47505U 21006CW  26186.54063285  .00009415  00000+0  28003-3 0  9990
2 47505  97.2307 231.1741 0007847 131.4447 228.7472 15.34916957302311
HAWK-2B                 
1 47508U 21006CZ  26186.07863533  .00012715  00000+0  37580-3 0  9992
2 47508  97.2176 229.0244 0008376 131.1027 229.0942 15.35030031302240
HAWK-3B                 
1 48931U 21059BE  26186.35803112  .00061613  00000+0  48717-3 0  9994
2 48931  97.6647  24.8043 0003632 237.9442 122.1467 15.71176000280700
HAWK-3C                 
1 48948U 21059BX  26186.10295877  .00067598  00000+0  53471-3 0  9999
2 48948  97.6762  30.2409 0003825 241.0163 119.0716 15.71143486280662
HAWK-3A                 
1 48957U 21059CG  26186.35760252  .00062999  00000+0  49813-3 0  9995
2 48957  97.6709  27.7109 0003821 242.6219 117.4655 15.71169644280709
HAWK-5C                 
1 52754U 22057Y   26186.42303771  .00026568  00000+0  44126-3 0  9995
2 52754  97.6617 347.2763 0003764  22.2256 337.9158 15.52071555229175
HAWK-5B                 
1 52756U 22057AA  26186.42285309  .00026916  00000+0  44688-3 0  9993
2 52756  97.6632 345.6276 0004335  10.8237 349.3108 15.52076066229176
